{"type":"FeatureCollection", "features": [
{"type":"Feature","geometry":{"type":"Polygon","coordinates":[[[10.10748,53.56554],[10.10568,53.56536],[10.10231,53.56493],[10.09656,53.5641],[10.09261,53.56365],[10.08618,53.56305],[10.08058,53.56255],[10.07837,53.56225],[10.07562,53.56181],[10.07557,53.56193],[10.07324,53.56162],[10.07358,53.56132],[10.07205,53.56096],[10.071,53.5605],[10.07058,53.5601],[10.06912,53.55957],[10.06855,53.55954],[10.06611,53.55988],[10.06396,53.56337],[10.06224,53.56611],[10.05971,53.56541],[10.05645,53.56456],[10.05411,53.56404],[10.05248,53.56376],[10.05107,53.5636],[10.04736,53.56338],[10.04444,53.56304],[10.04285,53.56273],[10.04144,53.56234],[10.03774,53.56091],[10.03255,53.55876],[10.03123,53.55829],[10.02886,53.55729],[10.02741,53.5565],[10.0267,53.55669],[10.02635,53.55639],[10.02521,53.55716],[10.02361,53.55808],[10.02247,53.55854],[10.02144,53.55923],[10.01835,53.56083],[10.017,53.56113],[10.01641,53.56155],[10.01583,53.56139],[10.00822,53.56523],[9.99801,53.55785],[9.99737,53.55699],[9.99418,53.55779],[9.99201,53.55876],[9.99048,53.55977],[9.99045,53.55993],[9.98886,53.56116],[9.98639,53.56267],[9.98524,53.5633],[9.9844,53.5636],[9.98282,53.56384],[9.97675,53.56377],[9.97533,53.56379],[9.97159,53.5637],[9.97162,53.56322],[9.97057,53.5632],[9.97066,53.56354],[9.96565,53.56337],[9.96593,53.56255],[9.96617,53.56246],[9.96818,53.5625],[9.96758,53.56122],[9.96824,53.5611],[9.96777,53.56031],[9.96703,53.56012],[9.96735,53.55735],[9.96463,53.55707],[9.96441,53.5572],[9.96376,53.55835],[9.96094,53.55983],[9.95989,53.56025],[9.95974,53.56005],[9.95695,53.55343],[9.95692,53.55315],[9.9563,53.55177],[9.95583,53.54955],[9.95525,53.54904],[9.95497,53.54852],[9.95599,53.54808],[9.95711,53.5478],[9.95747,53.54639],[9.95825,53.54626],[9.96011,53.54637],[9.96026,53.54425],[9.96288,53.54434],[9.96439,53.54429],[9.96702,53.54401],[9.96987,53.5434],[9.98748,53.53862],[9.99048,53.53784],[9.99331,53.53735],[9.99533,53.53714],[10.00369,53.53668],[10.00701,53.5364],[10.01079,53.5359],[10.01442,53.53522],[10.01791,53.53438],[10.01929,53.53398],[10.02251,53.53297],[10.03157,53.53007],[10.0251,53.53793],[10.02386,53.53894],[10.02295,53.53939],[10.02604,53.541],[10.02684,53.54132],[10.02772,53.54126],[10.02874,53.54098],[10.02957,53.541],[10.03183,53.54211],[10.03315,53.54247],[10.03872,53.54237],[10.04023,53.5426],[10.04103,53.54296],[10.04231,53.54394],[10.04363,53.54454],[10.05088,53.54384],[10.0523,53.54394],[10.05321,53.54413],[10.05706,53.54538],[10.05818,53.54567],[10.05941,53.54586],[10.06082,53.54593],[10.06187,53.54582],[10.06311,53.54552],[10.06413,53.54507],[10.06479,53.54464],[10.06556,53.54388],[10.06592,53.54324],[10.06649,53.54059],[10.06706,53.53938],[10.06805,53.53847],[10.06881,53.53809],[10.07376,53.53665],[10.07409,53.53716],[10.07664,53.53756],[10.08237,53.53965],[10.08363,53.53994],[10.08486,53.54004],[10.08617,53.53992],[10.08862,53.53921],[10.09022,53.53849],[10.09223,53.54114],[10.09081,53.54166],[10.09189,53.54306],[10.09139,53.54334],[10.09189,53.54391],[10.09311,53.54323],[10.09523,53.54268],[10.09647,53.54274],[10.09696,53.5435],[10.09726,53.54505],[10.09759,53.54585],[10.10054,53.54951],[10.10216,53.55148],[10.10402,53.55354],[10.10624,53.55612],[10.10647,53.55692],[10.10587,53.55892],[10.10862,53.55904],[10.10864,53.56323],[10.10803,53.56392],[10.10748,53.56554]]]},"properties":{"nr":1,"name":"Hamburg-Mitte","lx":10.01347,"ly":53.54899}},
{"type":"Feature","geometry":{"type":"Polygon","coordinates":[[[10.14772,53.56438],[10.14122,53.56588],[10.13964,53.56627],[10.13687,53.56678],[10.13471,53.56704],[10.13181,53.56728],[10.12861,53.56737],[10.12541,53.56724],[10.11764,53.56645],[10.11316,53.56603],[10.10748,53.56554],[10.10803,53.56392],[10.10864,53.56323],[10.10862,53.55904],[10.10587,53.55892],[10.10647,53.55692],[10.10624,53.55612],[10.10402,53.55354],[10.10216,53.55148],[10.10054,53.54951],[10.09759,53.54585],[10.09726,53.54505],[10.09696,53.5435],[10.09647,53.54274],[10.09523,53.54268],[10.09311,53.54323],[10.09189,53.54391],[10.09139,53.54334],[10.09189,53.54306],[10.09081,53.54166],[10.09223,53.54114],[10.09022,53.53849],[10.08862,53.53921],[10.08617,53.53992],[10.08486,53.54004],[10.08363,53.53994],[10.08237,53.53965],[10.07664,53.53756],[10.07409,53.53716],[10.07376,53.53665],[10.06881,53.53809],[10.06805,53.53847],[10.06706,53.53938],[10.06649,53.54059],[10.06592,53.54324],[10.06556,53.54388],[10.06479,53.54464],[10.06413,53.54507],[10.06311,53.54552],[10.06187,53.54582],[10.06082,53.54593],[10.05941,53.54586],[10.05818,53.54567],[10.05706,53.54538],[10.05321,53.54413],[10.0523,53.54394],[10.05088,53.54384],[10.04363,53.54454],[10.04231,53.54394],[10.04103,53.54296],[10.04023,53.5426],[10.03872,53.54237],[10.03315,53.54247],[10.03183,53.54211],[10.02957,53.541],[10.02874,53.54098],[10.02772,53.54126],[10.02684,53.54132],[10.02604,53.541],[10.02295,53.53939],[10.02386,53.53894],[10.0251,53.53793],[10.03157,53.53007],[10.02251,53.53297],[10.01929,53.53398],[10.01791,53.53438],[10.01442,53.53522],[10.01079,53.5359],[10.00701,53.5364],[10.00369,53.53668],[9.99533,53.53714],[9.99331,53.53735],[9.99048,53.53784],[9.98748,53.53862],[9.96987,53.5434],[9.96702,53.54401],[9.96439,53.54429],[9.96288,53.54434],[9.96026,53.54425],[9.95798,53.54397],[9.95448,53.54333],[9.95443,53.54346],[9.95059,53.54271],[9.94452,53.54237],[9.94337,53.54237],[9.92153,53.54153],[9.91623,53.54152],[9.89438,53.54172],[9.88689,53.54193],[9.88264,53.54212],[9.87117,53.54343],[9.86426,53.54423],[9.86003,53.54476],[9.84911,53.54623],[9.84095,53.54738],[9.82993,53.54922],[9.81534,53.55163],[9.80873,53.55274],[9.79792,53.55452],[9.77759,53.55714],[9.77437,53.55432],[9.77422,53.55348],[9.77231,53.54352],[9.77378,53.54284],[9.7744,53.54269],[9.77632,53.54159],[9.77821,53.54093],[9.78031,53.53981],[9.78211,53.53898],[9.78437,53.53823],[9.78566,53.53765],[9.78686,53.53746],[9.78825,53.53689],[9.79005,53.53645],[9.79195,53.5362],[9.79272,53.536],[9.7959,53.5342],[9.79802,53.53377],[9.79889,53.53336],[9.7996,53.53319],[9.80187,53.53231],[9.80479,53.53143],[9.80602,53.53115],[9.80667,53.53081],[9.80735,53.53101],[9.80899,53.53071],[9.80965,53.53072],[9.81134,53.53051],[9.81222,53.53033],[9.81365,53.5299],[9.81468,53.52974],[9.81645,53.52933],[9.81758,53.52915],[9.81795,53.52844],[9.82019,53.52802],[9.82168,53.52801],[9.82247,53.52822],[9.82356,53.52872],[9.825,53.52903],[9.82647,53.52945],[9.82639,53.5271],[9.82669,53.52592],[9.82723,53.52456],[9.82799,53.52301],[9.82939,53.5208],[9.83079,53.51958],[9.83198,53.5187],[9.83456,53.51729],[9.83767,53.5165],[9.84217,53.51566],[9.84515,53.51589],[9.8463,53.51652],[9.85443,53.51678],[9.85825,53.51721],[9.86009,53.51796],[9.86276,53.51885],[9.86566,53.51945],[9.86808,53.5197],[9.87107,53.51965],[9.87343,53.51942],[9.87492,53.51913],[9.87787,53.51864],[9.87814,53.51903],[9.88095,53.519],[9.88389,53.51911],[9.88453,53.51908],[9.88534,53.51812],[9.88622,53.51785],[9.88792,53.51783],[9.88908,53.51774],[9.89057,53.51743],[9.8916,53.51709],[9.89426,53.51595],[9.89571,53.51547],[9.90174,53.51387],[9.9034,53.51355],[9.90689,53.51327],[9.90908,53.51331],[9.91041,53.51362],[9.91146,53.51367],[9.91179,53.51352],[9.91264,53.51402],[9.91345,53.51427],[9.91452,53.51424],[9.91507,53.51471],[9.91668,53.515],[9.91777,53.51462],[9.91855,53.51449],[9.92018,53.51502],[9.92191,53.51532],[9.92379,53.51585],[9.92565,53.51581],[9.92636,53.51635],[9.92738,53.51764],[9.92766,53.51815],[9.92904,53.51889],[9.93147,53.521],[9.93275,53.52162],[9.93401,53.52189],[9.93442,53.52223],[9.93882,53.52171],[9.93883,53.51995],[9.93951,53.51405],[9.93992,53.51135],[9.94015,53.50882],[9.94065,53.50597],[9.9412,53.50428],[9.9417,53.50336],[9.94261,53.50218],[9.94366,53.50118],[9.94497,53.50009],[9.94616,53.4993],[9.94901,53.49769],[9.95008,53.49688],[9.95066,53.49631],[9.95183,53.49481],[9.95322,53.49256],[9.95477,53.49042],[9.95587,53.48903],[9.95777,53.48692],[9.95993,53.48502],[9.96171,53.48376],[9.96332,53.48286],[9.97017,53.47962],[9.97402,53.4779],[9.97528,53.47748],[9.97795,53.47672],[9.98214,53.47571],[9.98697,53.47492],[9.99004,53.47451],[9.99615,53.47347],[10.00009,53.47273],[10.00114,53.4726],[10.00403,53.47244],[10.00708,53.47265],[10.01276,53.47332],[10.01472,53.47358],[10.01636,53.47371],[10.02082,53.47431],[10.02483,53.47458],[10.02556,53.47459],[10.02874,53.47435],[10.03095,53.47403],[10.03308,53.47356],[10.03525,53.47296],[10.03712,53.47238],[10.03896,53.47167],[10.04272,53.47011],[10.04445,53.46922],[10.04606,53.46827],[10.04832,53.4666],[10.04917,53.46581],[10.05079,53.46449],[10.05161,53.46391],[10.05315,53.46295],[10.06092,53.45895],[10.06512,53.45682],[10.06719,53.4559],[10.06957,53.45515],[10.07158,53.45473],[10.07899,53.45387],[10.07413,53.45521],[10.07138,53.45702],[10.07036,53.45756],[10.0682,53.45911],[10.06683,53.46036],[10.06608,53.4612],[10.06529,53.46225],[10.06487,53.463],[10.06321,53.46719],[10.06276,53.46868],[10.06246,53.47088],[10.0624,53.47231],[10.06216,53.47371],[10.06169,53.47517],[10.06126,53.4762],[10.0601,53.47825],[10.05941,53.47908],[10.05873,53.4797],[10.05556,53.48208],[10.05409,53.4835],[10.05275,53.48517],[10.05217,53.48638],[10.05187,53.48745],[10.05144,53.49006],[10.05105,53.49298],[10.05105,53.49471],[10.05145,53.49659],[10.05217,53.49816],[10.05338,53.50013],[10.05467,53.50197],[10.05737,53.50559],[10.05809,53.50665],[10.05967,53.50629],[10.06041,53.50464],[10.06126,53.50354],[10.06237,53.50254],[10.06383,53.50157],[10.06594,53.50059],[10.06746,53.50007],[10.07041,53.50462],[10.07073,53.50501],[10.07005,53.50658],[10.06964,53.50806],[10.06947,53.50928],[10.0694,53.5109],[10.06998,53.51099],[10.07319,53.51116],[10.07302,53.51211],[10.07277,53.51273],[10.07218,53.51367],[10.0712,53.51468],[10.06567,53.51967],[10.06585,53.52157],[10.06504,53.52422],[10.06443,53.52471],[10.06611,53.52545],[10.06635,53.52545],[10.06876,53.52485],[10.06853,53.52437],[10.06814,53.52422],[10.07265,53.52144],[10.08824,53.51173],[10.089,53.51139],[10.08957,53.51094],[10.09022,53.51102],[10.09135,53.5126],[10.09188,53.51301],[10.09325,53.51376],[10.09349,53.51433],[10.09318,53.51453],[10.09573,53.51636],[10.09622,53.51652],[10.09726,53.51729],[10.09771,53.51775],[10.09887,53.51864],[10.10018,53.51897],[10.10052,53.5188],[10.10475,53.52185],[10.10835,53.52437],[10.10938,53.52513],[10.11066,53.52551],[10.11049,53.52579],[10.11157,53.52579],[10.11161,53.52503],[10.11217,53.5245],[10.11433,53.5238],[10.11512,53.52372],[10.11711,53.52325],[10.11787,53.52318],[10.11873,53.5223],[10.12092,53.52115],[10.12175,53.52106],[10.12259,53.5214],[10.12192,53.52023],[10.12206,53.51984],[10.12264,53.51965],[10.12525,53.52111],[10.12572,53.52145],[10.12873,53.52324],[10.12986,53.524],[10.13215,53.52433],[10.13329,53.525],[10.13438,53.52585],[10.13536,53.52606],[10.13621,53.52641],[10.13747,53.52588],[10.1405,53.5248],[10.14454,53.52325],[10.14558,53.52291],[10.14622,53.52254],[10.14881,53.52153],[10.1522,53.52001],[10.15423,53.51906],[10.1551,53.51947],[10.15626,53.51929],[10.15931,53.522],[10.15894,53.52281],[10.16234,53.52298],[10.16178,53.52528],[10.1617,53.52608],[10.16188,53.52673],[10.16289,53.52842],[10.16397,53.52919],[10.16383,53.52973],[10.16305,53.53078],[10.16378,53.53184],[10.1646,53.5322],[10.16532,53.53308],[10.16518,53.53378],[10.16562,53.53462],[10.16592,53.53472],[10.16851,53.53473],[10.16878,53.53738],[10.16799,53.53729],[10.16451,53.53756],[10.16438,53.53747],[10.16134,53.53774],[10.16046,53.53803],[10.16022,53.53769],[10.1595,53.5377],[10.15879,53.5372],[10.15823,53.53739],[10.15731,53.53728],[10.1572,53.5367],[10.15601,53.53672],[10.15468,53.53641],[10.1535,53.54001],[10.15233,53.53998],[10.15199,53.54095],[10.1518,53.54208],[10.15236,53.54273],[10.15247,53.54319],[10.15154,53.54481],[10.14846,53.54601],[10.15021,53.54873],[10.15562,53.55236],[10.15622,53.55233],[10.15677,53.55291],[10.15668,53.55331],[10.15735,53.554],[10.15883,53.55457],[10.15933,53.5549],[10.15978,53.55568],[10.15971,53.55607],[10.1603,53.55761],[10.1602,53.55848],[10.15924,53.55988],[10.15875,53.56028],[10.16049,53.56096],[10.15835,53.56125],[10.1566,53.56168],[10.15272,53.56282],[10.14801,53.56401],[10.14772,53.56438]]]},"properties":{"nr":2,"name":"Billstedt – Wilhelmsburg – Finkenwerder","lx":9.9911,"ly":53.50603}},
{"type":"Feature","geometry":{"type":"Polygon","coordinates":[[[9.94935,53.56961],[9.94888,53.56966],[9.94761,53.57054],[9.94503,53.57168],[9.94461,53.57171],[9.94439,53.56965],[9.94396,53.56966],[9.94369,53.57052],[9.94211,53.57193],[9.94064,53.57186],[9.93781,53.57185],[9.93576,53.57162],[9.93406,53.57171],[9.93366,53.57245],[9.93244,53.57366],[9.93074,53.57321],[9.93069,53.57344],[9.92806,53.57537],[9.92612,53.57674],[9.92433,53.57812],[9.92303,53.57891],[9.92119,53.57984],[9.91969,53.58083],[9.9191,53.58077],[9.91839,53.5817],[9.91824,53.58277],[9.91788,53.58411],[9.91691,53.58497],[9.91662,53.58539],[9.91629,53.58715],[9.91632,53.58841],[9.91612,53.58867],[9.91541,53.58875],[9.91529,53.58921],[9.9155,53.58957],[9.91451,53.59046],[9.91415,53.59056],[9.90769,53.58988],[9.90738,53.58922],[9.90733,53.58797],[9.90741,53.58708],[9.90782,53.58637],[9.90575,53.58611],[9.90502,53.58672],[9.90442,53.58747],[9.90222,53.58769],[9.90229,53.58809],[9.90201,53.58891],[9.90197,53.59],[9.90084,53.59131],[9.90012,53.59181],[9.90024,53.59264],[9.89866,53.5929],[9.89807,53.59145],[9.89653,53.59163],[9.89643,53.59241],[9.89152,53.59259],[9.88562,53.59261],[9.88587,53.59215],[9.88594,53.59123],[9.88342,53.58996],[9.88417,53.58987],[9.88496,53.58926],[9.88116,53.58659],[9.88004,53.58599],[9.8811,53.58504],[9.88174,53.58428],[9.88233,53.58339],[9.88327,53.58166],[9.88236,53.58215],[9.88144,53.58317],[9.87797,53.58246],[9.8742,53.5814],[9.8688,53.58141],[9.86689,53.58138],[9.86686,53.58075],[9.86647,53.57937],[9.86612,53.57775],[9.86582,53.57522],[9.86482,53.57359],[9.86487,53.57313],[9.86535,53.57157],[9.86859,53.57128],[9.87035,53.57117],[9.87317,53.57107],[9.87506,53.57073],[9.87749,53.56987],[9.87929,53.56911],[9.88127,53.56872],[9.88545,53.56833],[9.88707,53.56813],[9.89072,53.56748],[9.8962,53.5657],[9.89723,53.56557],[9.89713,53.56511],[9.89719,53.56319],[9.89741,53.56214],[9.9003,53.56042],[9.90042,53.5597],[9.88789,53.55929],[9.887,53.55933],[9.8836,53.55921],[9.88361,53.55912],[9.87508,53.55886],[9.87046,53.55868],[9.86486,53.55831],[9.86507,53.55586],[9.86495,53.55439],[9.86503,53.5537],[9.86451,53.55258],[9.86387,53.55039],[9.86403,53.54955],[9.86394,53.54894],[9.86436,53.54736],[9.86426,53.54423],[9.87117,53.54343],[9.88264,53.54212],[9.88689,53.54193],[9.89438,53.54172],[9.91623,53.54152],[9.92153,53.54153],[9.94337,53.54237],[9.94452,53.54237],[9.95059,53.54271],[9.95443,53.54346],[9.95448,53.54333],[9.95798,53.54397],[9.96026,53.54425],[9.96011,53.54637],[9.95825,53.54626],[9.95747,53.54639],[9.95711,53.5478],[9.95599,53.54808],[9.95497,53.54852],[9.95525,53.54904],[9.95583,53.54955],[9.9563,53.55177],[9.95692,53.55315],[9.95695,53.55343],[9.95974,53.56005],[9.95989,53.56025],[9.96094,53.55983],[9.96376,53.55835],[9.96441,53.5572],[9.96463,53.55707],[9.96735,53.55735],[9.96703,53.56012],[9.96777,53.56031],[9.96824,53.5611],[9.96758,53.56122],[9.96818,53.5625],[9.96617,53.56246],[9.96593,53.56255],[9.96565,53.56337],[9.97066,53.56354],[9.97057,53.5632],[9.97162,53.56322],[9.97159,53.5637],[9.97533,53.56379],[9.97675,53.56377],[9.97695,53.56403],[9.9764,53.56437],[9.97373,53.56429],[9.97455,53.56521],[9.97154,53.56664],[9.97004,53.5673],[9.96916,53.56708],[9.96685,53.56594],[9.96621,53.56557],[9.96606,53.56522],[9.96543,53.56514],[9.9603,53.56367],[9.95966,53.56378],[9.95946,53.5641],[9.9578,53.56486],[9.95382,53.56617],[9.95257,53.56649],[9.95173,53.56749],[9.95028,53.56893],[9.94987,53.56944],[9.94935,53.56961]]]},"properties":{"nr":3,"name":"Altona","lx":9.91674,"ly":53.56083}},
{"type":"Feature","geometry":{"type":"Polygon","coordinates":[[[9.86921,53.61326],[9.86815,53.60929],[9.86423,53.60805],[9.8617,53.6072],[9.86073,53.605],[9.8593,53.6038],[9.85765,53.6023],[9.85787,53.59937],[9.85432,53.59835],[9.85296,53.59742],[9.84901,53.5978],[9.84931,53.59739],[9.84453,53.59648],[9.84508,53.59497],[9.83963,53.59504],[9.83969,53.59477],[9.83934,53.59396],[9.83993,53.59335],[9.83997,53.5928],[9.83961,53.59248],[9.83876,53.59255],[9.83782,53.59199],[9.83708,53.59203],[9.83693,53.59153],[9.83612,53.59014],[9.83604,53.58978],[9.83673,53.58936],[9.83682,53.58798],[9.8366,53.58768],[9.83546,53.58735],[9.83359,53.58725],[9.83257,53.58668],[9.82965,53.58563],[9.82857,53.5854],[9.8263,53.58518],[9.82563,53.58496],[9.82483,53.58423],[9.82346,53.58428],[9.82184,53.58466],[9.82113,53.58509],[9.81927,53.58564],[9.81583,53.58648],[9.80731,53.59175],[9.8066,53.5924],[9.80673,53.59261],[9.806,53.59287],[9.80468,53.59374],[9.80391,53.59331],[9.80351,53.59334],[9.80231,53.59411],[9.80159,53.59485],[9.79865,53.59593],[9.79751,53.59605],[9.79749,53.59669],[9.79274,53.6001],[9.79118,53.60141],[9.78972,53.60397],[9.79219,53.60429],[9.79219,53.6049],[9.79544,53.60532],[9.79719,53.60565],[9.79902,53.60793],[9.79761,53.60923],[9.79626,53.61033],[9.79121,53.60863],[9.79029,53.60928],[9.78893,53.61062],[9.7889,53.61116],[9.78621,53.6114],[9.78463,53.61185],[9.77868,53.61372],[9.77052,53.61601],[9.76852,53.62253],[9.7714,53.63138],[9.77127,53.63142],[9.77003,53.62761],[9.76373,53.62739],[9.76355,53.62491],[9.76005,53.62431],[9.75883,53.62108],[9.75754,53.61706],[9.75665,53.61597],[9.75585,53.61604],[9.75481,53.61474],[9.75359,53.61297],[9.75625,53.61196],[9.75921,53.611],[9.75748,53.60714],[9.75543,53.60266],[9.74833,53.60385],[9.7474,53.60184],[9.74522,53.59973],[9.74379,53.59802],[9.74363,53.59685],[9.74419,53.59496],[9.74474,53.59461],[9.74647,53.59263],[9.74533,53.58934],[9.7456,53.589],[9.74437,53.589],[9.74418,53.5892],[9.74282,53.58933],[9.74212,53.58839],[9.7354,53.58347],[9.73453,53.58253],[9.73537,53.58219],[9.73655,53.58133],[9.73743,53.57987],[9.73914,53.58005],[9.73902,53.5812],[9.74032,53.58128],[9.742,53.57868],[9.74253,53.57798],[9.74019,53.57788],[9.73872,53.5776],[9.73752,53.57767],[9.73674,53.57715],[9.73604,53.57627],[9.73598,53.57563],[9.73694,53.57524],[9.73612,53.57258],[9.73471,53.56841],[9.73477,53.56745],[9.73528,53.56647],[9.73474,53.56565],[9.73013,53.55764],[9.76335,53.55515],[9.76511,53.55461],[9.7699,53.55461],[9.77437,53.55432],[9.77759,53.55714],[9.79792,53.55452],[9.80873,53.55274],[9.81534,53.55163],[9.82993,53.54922],[9.84095,53.54738],[9.84911,53.54623],[9.86003,53.54476],[9.86426,53.54423],[9.86436,53.54736],[9.86394,53.54894],[9.86403,53.54955],[9.86387,53.55039],[9.86451,53.55258],[9.86503,53.5537],[9.86495,53.55439],[9.86507,53.55586],[9.86486,53.55831],[9.87046,53.55868],[9.87508,53.55886],[9.88361,53.55912],[9.8836,53.55921],[9.887,53.55933],[9.88789,53.55929],[9.90042,53.5597],[9.9003,53.56042],[9.89741,53.56214],[9.89719,53.56319],[9.89713,53.56511],[9.89723,53.56557],[9.8962,53.5657],[9.89072,53.56748],[9.88707,53.56813],[9.88545,53.56833],[9.88127,53.56872],[9.87929,53.56911],[9.87749,53.56987],[9.87506,53.57073],[9.87317,53.57107],[9.87035,53.57117],[9.86859,53.57128],[9.86535,53.57157],[9.86487,53.57313],[9.86482,53.57359],[9.86582,53.57522],[9.86612,53.57775],[9.86647,53.57937],[9.86686,53.58075],[9.86689,53.58138],[9.8688,53.58141],[9.8742,53.5814],[9.87797,53.58246],[9.88144,53.58317],[9.88236,53.58215],[9.88327,53.58166],[9.88233,53.58339],[9.88174,53.58428],[9.8811,53.58504],[9.88004,53.58599],[9.88116,53.58659],[9.88496,53.58926],[9.88417,53.58987],[9.88342,53.58996],[9.88594,53.59123],[9.88587,53.59215],[9.88562,53.59261],[9.89152,53.59259],[9.89643,53.59241],[9.89653,53.59163],[9.89807,53.59145],[9.89866,53.5929],[9.90024,53.59264],[9.90068,53.59328],[9.90077,53.59445],[9.90008,53.59692],[9.9002,53.5972],[9.90088,53.5973],[9.89741,53.59877],[9.89773,53.59919],[9.89601,53.59995],[9.89019,53.60212],[9.88428,53.60455],[9.88076,53.60614],[9.87924,53.60693],[9.87425,53.61003],[9.86921,53.61326]]]},"properties":{"nr":4,"name":"Altona-West","lx":9.77609,"ly":53.58126}},
{"type":"Feature","geometry":{"type":"Polygon","coordinates":[[[9.9688,53.58624],[9.96788,53.586],[9.96435,53.58476],[9.96122,53.5836],[9.96193,53.5817],[9.96218,53.58151],[9.95941,53.58113],[9.95701,53.58096],[9.95762,53.5805],[9.95231,53.57746],[9.95178,53.57694],[9.95134,53.57568],[9.95093,53.57503],[9.95041,53.57454],[9.94878,53.57345],[9.95,53.5728],[9.94973,53.57205],[9.94964,53.57048],[9.94935,53.56961],[9.94987,53.56944],[9.95028,53.56893],[9.95173,53.56749],[9.95257,53.56649],[9.95382,53.56617],[9.9578,53.56486],[9.95946,53.5641],[9.95966,53.56378],[9.9603,53.56367],[9.96543,53.56514],[9.96606,53.56522],[9.96621,53.56557],[9.96685,53.56594],[9.96916,53.56708],[9.97004,53.5673],[9.97154,53.56664],[9.97455,53.56521],[9.97373,53.56429],[9.9764,53.56437],[9.97695,53.56403],[9.97675,53.56377],[9.98282,53.56384],[9.9844,53.5636],[9.98524,53.5633],[9.98639,53.56267],[9.98886,53.56116],[9.99045,53.55993],[9.99048,53.55977],[9.99201,53.55876],[9.99418,53.55779],[9.99737,53.55699],[9.99801,53.55785],[10.00822,53.56523],[10.0038,53.57532],[9.99911,53.57993],[9.99708,53.58142],[9.99598,53.58207],[9.99549,53.58277],[9.99547,53.58402],[9.99496,53.58437],[9.99377,53.58476],[9.99337,53.58504],[9.9917,53.58524],[9.98962,53.58522],[9.98594,53.58451],[9.98506,53.58423],[9.98398,53.58371],[9.98119,53.58203],[9.97907,53.58067],[9.97618,53.57869],[9.97556,53.57912],[9.97236,53.58192],[9.97201,53.58215],[9.97,53.58397],[9.96956,53.58454],[9.96937,53.58514],[9.9688,53.58624]]]},"properties":{"nr":5,"name":"Rotherbaum – Harvestehude – Eimsbüttel-Ost","lx":9.98844,"ly":53.5732}},
{"type":"Feature","geometry":{"type":"Polygon","coordinates":[[[9.95701,53.58096],[9.95592,53.5813],[9.95101,53.5824],[9.95034,53.58243],[9.94773,53.58236],[9.94749,53.58296],[9.94798,53.58426],[9.94767,53.58596],[9.94741,53.58677],[9.94718,53.58683],[9.94645,53.58807],[9.94443,53.5911],[9.94387,53.59223],[9.94349,53.59322],[9.94305,53.59318],[9.94256,53.59413],[9.94214,53.59559],[9.94173,53.599],[9.94075,53.60216],[9.93952,53.60212],[9.93847,53.60319],[9.93868,53.60375],[9.93922,53.60405],[9.93915,53.60479],[9.93873,53.60505],[9.93589,53.60555],[9.93562,53.60579],[9.93595,53.60628],[9.93523,53.60658],[9.93394,53.60672],[9.93368,53.60698],[9.93287,53.6072],[9.93297,53.60791],[9.92942,53.60788],[9.92797,53.60762],[9.92772,53.60819],[9.92706,53.609],[9.92633,53.61061],[9.92638,53.61075],[9.92954,53.6129],[9.929,53.61331],[9.92846,53.61401],[9.92721,53.61455],[9.92789,53.61511],[9.92817,53.6166],[9.92904,53.61821],[9.92896,53.6192],[9.92855,53.61964],[9.92748,53.62015],[9.92643,53.62052],[9.92638,53.62111],[9.9257,53.62175],[9.92354,53.62213],[9.92263,53.62266],[9.91624,53.62366],[9.91105,53.62333],[9.90869,53.6229],[9.90201,53.62282],[9.90195,53.62279],[9.89699,53.62274],[9.89487,53.62301],[9.8946,53.62293],[9.89223,53.62341],[9.89032,53.62393],[9.88962,53.62447],[9.88873,53.62473],[9.88759,53.62475],[9.88618,53.62521],[9.88597,53.62496],[9.8892,53.62287],[9.88508,53.62203],[9.88495,53.62191],[9.88197,53.62043],[9.8809,53.62036],[9.87921,53.61973],[9.87372,53.61657],[9.86929,53.61361],[9.86921,53.61326],[9.87425,53.61003],[9.87924,53.60693],[9.88076,53.60614],[9.88428,53.60455],[9.89019,53.60212],[9.89601,53.59995],[9.89773,53.59919],[9.89741,53.59877],[9.90088,53.5973],[9.9002,53.5972],[9.90008,53.59692],[9.90077,53.59445],[9.90068,53.59328],[9.90024,53.59264],[9.90012,53.59181],[9.90084,53.59131],[9.90197,53.59],[9.90201,53.58891],[9.90229,53.58809],[9.90222,53.58769],[9.90442,53.58747],[9.90502,53.58672],[9.90575,53.58611],[9.90782,53.58637],[9.90741,53.58708],[9.90733,53.58797],[9.90738,53.58922],[9.90769,53.58988],[9.91415,53.59056],[9.91451,53.59046],[9.9155,53.58957],[9.91529,53.58921],[9.91541,53.58875],[9.91612,53.58867],[9.91632,53.58841],[9.91629,53.58715],[9.91662,53.58539],[9.91691,53.58497],[9.91788,53.58411],[9.91824,53.58277],[9.91839,53.5817],[9.9191,53.58077],[9.91969,53.58083],[9.92119,53.57984],[9.92303,53.57891],[9.92433,53.57812],[9.92612,53.57674],[9.92806,53.57537],[9.93069,53.57344],[9.93074,53.57321],[9.93244,53.57366],[9.93366,53.57245],[9.93406,53.57171],[9.93576,53.57162],[9.93781,53.57185],[9.94064,53.57186],[9.94211,53.57193],[9.94369,53.57052],[9.94396,53.56966],[9.94439,53.56965],[9.94461,53.57171],[9.94503,53.57168],[9.94761,53.57054],[9.94888,53.56966],[9.94935,53.56961],[9.94964,53.57048],[9.94973,53.57205],[9.95,53.5728],[9.94878,53.57345],[9.95041,53.57454],[9.95093,53.57503],[9.95134,53.57568],[9.95178,53.57694],[9.95231,53.57746],[9.95762,53.5805],[9.95701,53.58096]]]},"properties":{"nr":6,"name":"Eidelstedt – Stellingen – Eimsbüttel-West","lx":9.91204,"ly":53.60682}},
{"type":"Feature","geometry":{"type":"Polygon","coordinates":[[[9.9763,53.64973],[9.97592,53.64987],[9.97365,53.64811],[9.97258,53.64868],[9.96895,53.65035],[9.96749,53.64969],[9.96549,53.64862],[9.96451,53.64904],[9.9645,53.64934],[9.96393,53.64951],[9.96365,53.64991],[9.96301,53.65007],[9.96095,53.64961],[9.95938,53.64986],[9.95804,53.65048],[9.95478,53.65083],[9.95293,53.65158],[9.9516,53.65054],[9.95027,53.65084],[9.94971,53.65077],[9.94794,53.65133],[9.94676,53.65194],[9.9453,53.65287],[9.93746,53.65232],[9.93659,53.65324],[9.93525,53.65203],[9.93329,53.65266],[9.93248,53.65281],[9.93098,53.65267],[9.92993,53.65331],[9.92517,53.65306],[9.92168,53.65412],[9.92198,53.65438],[9.92103,53.65477],[9.92151,53.6552],[9.92104,53.65553],[9.91957,53.65479],[9.91825,53.65453],[9.91739,53.65416],[9.91715,53.6543],[9.91476,53.65487],[9.91449,53.65346],[9.91422,53.65313],[9.91274,53.65283],[9.91081,53.65257],[9.90975,53.65266],[9.90928,53.65295],[9.9078,53.65275],[9.90679,53.65243],[9.90712,53.652],[9.90708,53.65096],[9.9064,53.65084],[9.90583,53.64978],[9.90513,53.64723],[9.90452,53.64642],[9.90501,53.64637],[9.90608,53.64515],[9.90555,53.64503],[9.90572,53.64436],[9.90574,53.64175],[9.89953,53.64009],[9.89974,53.63937],[9.90055,53.6378],[9.90044,53.63634],[9.89687,53.63491],[9.89649,53.63251],[9.89641,53.63115],[9.89449,53.63097],[9.89254,53.62981],[9.88783,53.62723],[9.88618,53.62521],[9.88759,53.62475],[9.88873,53.62473],[9.88962,53.62447],[9.89032,53.62393],[9.89223,53.62341],[9.8946,53.62293],[9.89487,53.62301],[9.89699,53.62274],[9.90195,53.62279],[9.90201,53.62282],[9.90869,53.6229],[9.91105,53.62333],[9.91624,53.62366],[9.92263,53.62266],[9.92354,53.62213],[9.9257,53.62175],[9.92638,53.62111],[9.92643,53.62052],[9.92748,53.62015],[9.92855,53.61964],[9.92896,53.6192],[9.92904,53.61821],[9.92817,53.6166],[9.92789,53.61511],[9.92721,53.61455],[9.92846,53.61401],[9.929,53.61331],[9.92954,53.6129],[9.92638,53.61075],[9.92633,53.61061],[9.92706,53.609],[9.92772,53.60819],[9.92797,53.60762],[9.92942,53.60788],[9.93297,53.60791],[9.93287,53.6072],[9.93368,53.60698],[9.93394,53.60672],[9.93523,53.60658],[9.93595,53.60628],[9.93562,53.60579],[9.93589,53.60555],[9.93873,53.60505],[9.93915,53.60479],[9.93922,53.60405],[9.93868,53.60375],[9.93847,53.60319],[9.93952,53.60212],[9.94075,53.60216],[9.94173,53.599],[9.94214,53.59559],[9.94256,53.59413],[9.94305,53.59318],[9.94349,53.59322],[9.94387,53.59223],[9.94443,53.5911],[9.94645,53.58807],[9.94718,53.58683],[9.94741,53.58677],[9.94767,53.58596],[9.94798,53.58426],[9.94749,53.58296],[9.94773,53.58236],[9.95034,53.58243],[9.95101,53.5824],[9.95592,53.5813],[9.95701,53.58096],[9.95941,53.58113],[9.96218,53.58151],[9.96193,53.5817],[9.96122,53.5836],[9.96435,53.58476],[9.96788,53.586],[9.9688,53.58624],[9.96838,53.58761],[9.96826,53.58841],[9.96766,53.59086],[9.97086,53.59116],[9.97151,53.59144],[9.97154,53.59186],[9.97005,53.59377],[9.97233,53.5939],[9.9742,53.59433],[9.9745,53.59817],[9.97459,53.59834],[9.97191,53.59867],[9.97184,53.59894],[9.9719,53.60187],[9.97178,53.60276],[9.96917,53.60328],[9.96639,53.60415],[9.96618,53.60433],[9.96627,53.60495],[9.96665,53.60535],[9.96535,53.60609],[9.96487,53.60762],[9.96466,53.60857],[9.96533,53.60977],[9.96526,53.61017],[9.96736,53.61266],[9.9672,53.61426],[9.96802,53.61705],[9.96753,53.61669],[9.96589,53.61588],[9.96453,53.61585],[9.96363,53.61612],[9.96096,53.61508],[9.96019,53.61453],[9.95947,53.61438],[9.95672,53.61452],[9.95633,53.6158],[9.95677,53.6161],[9.9573,53.61694],[9.95795,53.61721],[9.96049,53.61878],[9.96656,53.62177],[9.96738,53.62177],[9.96795,53.62242],[9.96992,53.62327],[9.97136,53.62403],[9.97208,53.62462],[9.97353,53.62551],[9.97636,53.62646],[9.97711,53.6268],[9.9788,53.62786],[9.97921,53.62832],[9.98083,53.63121],[9.98136,53.63334],[9.98249,53.63763],[9.98395,53.63773],[9.98399,53.63823],[9.98245,53.63817],[9.9827,53.63879],[9.98344,53.639],[9.98541,53.63907],[9.97898,53.64648],[9.97828,53.6475],[9.97753,53.64817],[9.9763,53.64973]]]},"properties":{"nr":7,"name":"Lokstedt – Niendorf – Schnelsen","lx":9.9435,"ly":53.632}},
{"type":"Feature","geometry":{"type":"Polygon","coordinates":[[[10.0038,53.57532],[10.01216,53.57824],[10.01277,53.57866],[10.0139,53.5805],[10.01451,53.58101],[10.01597,53.58154],[10.02188,53.58247],[10.02308,53.58277],[10.02702,53.58406],[10.0286,53.58439],[10.03367,53.58478],[10.03355,53.58616],[10.03336,53.58718],[10.03316,53.5891],[10.03284,53.59081],[10.03708,53.59123],[10.03679,53.59356],[10.03609,53.59559],[10.03561,53.59717],[10.03524,53.59707],[10.03466,53.59833],[10.03384,53.60063],[10.0335,53.6021],[10.03295,53.60491],[10.03217,53.60723],[10.03241,53.60728],[10.0317,53.60841],[10.03075,53.60911],[10.02972,53.6096],[10.02852,53.60992],[10.02734,53.61008],[10.02594,53.61011],[10.02456,53.60992],[10.02354,53.60968],[10.01779,53.60804],[10.01016,53.60584],[10.00261,53.6039],[10.00059,53.60348],[9.99735,53.60254],[9.99214,53.6008],[9.99093,53.6006],[9.9898,53.60057],[9.98846,53.60073],[9.98214,53.60185],[9.98059,53.60205],[9.9769,53.60238],[9.97644,53.60229],[9.9744,53.60248],[9.97218,53.60282],[9.97178,53.60276],[9.9719,53.60187],[9.97184,53.59894],[9.97191,53.59867],[9.97459,53.59834],[9.9745,53.59817],[9.9742,53.59433],[9.97233,53.5939],[9.97005,53.59377],[9.97154,53.59186],[9.97151,53.59144],[9.97086,53.59116],[9.96766,53.59086],[9.96826,53.58841],[9.96838,53.58761],[9.9688,53.58624],[9.96937,53.58514],[9.96956,53.58454],[9.97,53.58397],[9.97201,53.58215],[9.97236,53.58192],[9.97556,53.57912],[9.97618,53.57869],[9.97907,53.58067],[9.98119,53.58203],[9.98398,53.58371],[9.98506,53.58423],[9.98594,53.58451],[9.98962,53.58522],[9.9917,53.58524],[9.99337,53.58504],[9.99377,53.58476],[9.99496,53.58437],[9.99547,53.58402],[9.99549,53.58277],[9.99598,53.58207],[9.99708,53.58142],[9.99911,53.57993],[10.0038,53.57532]]]},"properties":{"nr":8,"name":"Eppendorf – Winterhude – Hoheluft-Ost","lx":10.00747,"ly":53.59087}},
{"type":"Feature","geometry":{"type":"Polygon","coordinates":[[[10.04328,53.60723],[10.03916,53.60654],[10.03887,53.60727],[10.03861,53.60838],[10.03395,53.60751],[10.03241,53.60728],[10.03217,53.60723],[10.03295,53.60491],[10.0335,53.6021],[10.03384,53.60063],[10.03466,53.59833],[10.03524,53.59707],[10.03561,53.59717],[10.03609,53.59559],[10.03679,53.59356],[10.03708,53.59123],[10.03284,53.59081],[10.03316,53.5891],[10.03336,53.58718],[10.03355,53.58616],[10.03367,53.58478],[10.0286,53.58439],[10.02702,53.58406],[10.02308,53.58277],[10.02188,53.58247],[10.01597,53.58154],[10.01451,53.58101],[10.0139,53.5805],[10.01277,53.57866],[10.01216,53.57824],[10.0038,53.57532],[10.00822,53.56523],[10.01583,53.56139],[10.01641,53.56155],[10.017,53.56113],[10.01835,53.56083],[10.02144,53.55923],[10.02247,53.55854],[10.02361,53.55808],[10.02521,53.55716],[10.02635,53.55639],[10.0267,53.55669],[10.02741,53.5565],[10.02886,53.55729],[10.03123,53.55829],[10.03255,53.55876],[10.03774,53.56091],[10.03603,53.56287],[10.03471,53.56414],[10.03187,53.56656],[10.03924,53.57036],[10.04069,53.57092],[10.04544,53.57219],[10.04919,53.57336],[10.05018,53.57307],[10.05575,53.57471],[10.05635,53.57506],[10.0568,53.5759],[10.05784,53.57609],[10.05811,53.57584],[10.05875,53.5759],[10.05964,53.57624],[10.06431,53.57853],[10.0642,53.57865],[10.06687,53.58033],[10.06896,53.58081],[10.07109,53.58268],[10.07198,53.58304],[10.07218,53.58357],[10.07315,53.58483],[10.07464,53.58717],[10.0752,53.58857],[10.07549,53.58904],[10.07477,53.58916],[10.0744,53.58955],[10.06934,53.58977],[10.0696,53.59084],[10.07001,53.59137],[10.07001,53.59197],[10.06906,53.592],[10.06777,53.59218],[10.06335,53.59305],[10.06189,53.59328],[10.0592,53.59344],[10.05809,53.59375],[10.05784,53.59417],[10.05717,53.59461],[10.05693,53.59511],[10.05642,53.59525],[10.05558,53.59655],[10.05579,53.59688],[10.05561,53.5974],[10.05573,53.5984],[10.0548,53.59956],[10.05533,53.60049],[10.05601,53.60084],[10.05639,53.6014],[10.05548,53.60141],[10.05134,53.60281],[10.05092,53.60254],[10.04792,53.60366],[10.04725,53.60403],[10.04328,53.60723]]]},"properties":{"nr":9,"name":"Barmbek – Uhlenhorst – Dulsberg","lx":10.04762,"ly":53.58509}},
{"type":"Feature","geometry":{"type":"Polygon","coordinates":[[[10.0741,53.63129],[10.06888,53.63014],[10.06116,53.62841],[10.06008,53.63159],[10.05857,53.63138],[10.0576,53.63436],[10.05727,53.63608],[10.05736,53.63672],[10.05645,53.63816],[10.05516,53.63777],[10.05314,53.6366],[10.05196,53.63609],[10.05049,53.63569],[10.04997,53.6357],[10.04928,53.63614],[10.04868,53.6363],[10.04801,53.63626],[10.0468,53.6359],[10.04562,53.63505],[10.04379,53.63485],[10.04312,53.63429],[10.04169,53.63374],[10.04152,53.63346],[10.0419,53.63255],[10.04135,53.63213],[10.04008,53.63192],[10.03915,53.63215],[10.0385,53.6325],[10.03751,53.6327],[10.03663,53.63334],[10.03565,53.63422],[10.03637,53.6346],[10.03484,53.63535],[10.03333,53.6362],[10.03398,53.63671],[10.03285,53.63691],[10.0322,53.63725],[10.03225,53.63755],[10.0315,53.63779],[10.02996,53.63793],[10.02958,53.63779],[10.02835,53.63772],[10.02632,53.63826],[10.02527,53.63781],[10.02379,53.63822],[10.02375,53.63839],[10.02079,53.63944],[10.02019,53.63938],[10.0202,53.64002],[10.0206,53.64005],[10.0233,53.6428],[10.0247,53.6443],[10.02522,53.64468],[10.03149,53.65001],[10.03399,53.65218],[10.03408,53.65237],[10.03561,53.65308],[10.03659,53.65393],[10.03643,53.655],[10.03657,53.65744],[10.03625,53.65763],[10.03496,53.65766],[10.03466,53.65783],[10.03484,53.65904],[10.03531,53.65928],[10.03507,53.66042],[10.03542,53.66095],[10.03503,53.66109],[10.03494,53.66159],[10.03526,53.66565],[10.03582,53.67311],[10.03594,53.67539],[10.03856,53.67766],[10.03883,53.67764],[10.04308,53.68141],[10.04345,53.68199],[10.02819,53.68169],[10.00499,53.68121],[10.00306,53.68093],[10.00096,53.68112],[9.99964,53.68152],[9.99748,53.68029],[9.9924,53.67629],[9.99245,53.67512],[9.98977,53.66932],[9.99114,53.6665],[9.99059,53.66478],[9.9916,53.661],[9.99119,53.65815],[9.98704,53.65542],[9.98698,53.65535],[9.9875,53.64937],[9.98744,53.64911],[9.98581,53.64823],[9.98543,53.64836],[9.98229,53.64886],[9.98224,53.64916],[9.98057,53.64918],[9.97859,53.64865],[9.97791,53.64909],[9.9763,53.64973],[9.97753,53.64817],[9.97828,53.6475],[9.97898,53.64648],[9.98541,53.63907],[9.98344,53.639],[9.9827,53.63879],[9.98245,53.63817],[9.98399,53.63823],[9.98395,53.63773],[9.98249,53.63763],[9.98136,53.63334],[9.98083,53.63121],[9.97921,53.62832],[9.9788,53.62786],[9.97711,53.6268],[9.97636,53.62646],[9.97353,53.62551],[9.97208,53.62462],[9.97136,53.62403],[9.96992,53.62327],[9.96795,53.62242],[9.96738,53.62177],[9.96656,53.62177],[9.96049,53.61878],[9.95795,53.61721],[9.9573,53.61694],[9.95677,53.6161],[9.95633,53.6158],[9.95672,53.61452],[9.95947,53.61438],[9.96019,53.61453],[9.96096,53.61508],[9.96363,53.61612],[9.96453,53.61585],[9.96589,53.61588],[9.96753,53.61669],[9.96802,53.61705],[9.9672,53.61426],[9.96736,53.61266],[9.96526,53.61017],[9.96533,53.60977],[9.96466,53.60857],[9.96487,53.60762],[9.96535,53.60609],[9.96665,53.60535],[9.96627,53.60495],[9.96618,53.60433],[9.96639,53.60415],[9.96917,53.60328],[9.97178,53.60276],[9.97218,53.60282],[9.9744,53.60248],[9.97644,53.60229],[9.9769,53.60238],[9.98059,53.60205],[9.98214,53.60185],[9.98846,53.60073],[9.9898,53.60057],[9.99093,53.6006],[9.99214,53.6008],[9.99735,53.60254],[10.00059,53.60348],[10.00261,53.6039],[10.01016,53.60584],[10.01779,53.60804],[10.02354,53.60968],[10.02456,53.60992],[10.02594,53.61011],[10.02734,53.61008],[10.02852,53.60992],[10.02972,53.6096],[10.03075,53.60911],[10.0317,53.60841],[10.03241,53.60728],[10.03395,53.60751],[10.03861,53.60838],[10.03887,53.60727],[10.03916,53.60654],[10.04328,53.60723],[10.04316,53.60784],[10.04425,53.60808],[10.04387,53.61138],[10.0437,53.61171],[10.04406,53.6121],[10.04552,53.61329],[10.04793,53.61648],[10.04885,53.61761],[10.04976,53.61901],[10.05471,53.61732],[10.05612,53.6171],[10.05728,53.61849],[10.05854,53.61941],[10.05946,53.61985],[10.06095,53.62034],[10.06193,53.6205],[10.06371,53.62052],[10.06573,53.62029],[10.06746,53.61976],[10.06921,53.61981],[10.07039,53.61938],[10.07156,53.61931],[10.07242,53.61901],[10.07313,53.61931],[10.07425,53.61895],[10.07651,53.62027],[10.07713,53.62016],[10.07761,53.62108],[10.07732,53.62114],[10.07779,53.62208],[10.07912,53.62183],[10.08003,53.6229],[10.08015,53.62359],[10.08041,53.62364],[10.08062,53.62432],[10.08109,53.62477],[10.08161,53.62461],[10.08343,53.62444],[10.08361,53.62522],[10.08419,53.62519],[10.08434,53.62575],[10.08497,53.6259],[10.08521,53.62696],[10.08457,53.62702],[10.08457,53.6275],[10.08196,53.62883],[10.078,53.62886],[10.07798,53.63102],[10.07707,53.63148],[10.0741,53.63129]]]},"properties":{"nr":10,"name":"Fuhlsbüttel – Alsterdorf – Langenhorn","lx":10.0032,"ly":53.62788}},
{"type":"Feature","geometry":{"type":"Polygon","coordinates":[[[10.13161,53.598],[10.1312,53.59756],[10.13084,53.59685],[10.1309,53.59571],[10.12873,53.59529],[10.12475,53.59503],[10.12492,53.59571],[10.12438,53.59578],[10.12421,53.5953],[10.12192,53.59558],[10.12157,53.59522],[10.12169,53.59467],[10.12106,53.59452],[10.1197,53.59444],[10.11904,53.59412],[10.11868,53.59341],[10.11809,53.59305],[10.11686,53.59295],[10.11653,53.59267],[10.11579,53.59246],[10.11511,53.59251],[10.11423,53.59225],[10.11227,53.59233],[10.10938,53.5917],[10.10956,53.59217],[10.1088,53.5926],[10.10853,53.59208],[10.10586,53.59065],[10.10491,53.59125],[10.10525,53.59201],[10.09903,53.5941],[10.09916,53.59628],[10.09998,53.59713],[10.09933,53.5978],[10.09168,53.59614],[10.09115,53.597],[10.09059,53.59748],[10.08963,53.59766],[10.08728,53.59755],[10.08342,53.59844],[10.08203,53.59846],[10.08087,53.59839],[10.07895,53.59812],[10.07693,53.59748],[10.07551,53.59679],[10.07399,53.59617],[10.07168,53.5955],[10.07004,53.59397],[10.06979,53.59295],[10.07001,53.59197],[10.07001,53.59137],[10.0696,53.59084],[10.06934,53.58977],[10.0744,53.58955],[10.07477,53.58916],[10.07549,53.58904],[10.0752,53.58857],[10.07464,53.58717],[10.07315,53.58483],[10.07218,53.58357],[10.07198,53.58304],[10.07109,53.58268],[10.06896,53.58081],[10.06687,53.58033],[10.0642,53.57865],[10.06431,53.57853],[10.05964,53.57624],[10.05875,53.5759],[10.05811,53.57584],[10.05784,53.57609],[10.0568,53.5759],[10.05635,53.57506],[10.05575,53.57471],[10.05018,53.57307],[10.04919,53.57336],[10.04544,53.57219],[10.04069,53.57092],[10.03924,53.57036],[10.03187,53.56656],[10.03471,53.56414],[10.03603,53.56287],[10.03774,53.56091],[10.04144,53.56234],[10.04285,53.56273],[10.04444,53.56304],[10.04736,53.56338],[10.05107,53.5636],[10.05248,53.56376],[10.05411,53.56404],[10.05645,53.56456],[10.05971,53.56541],[10.06224,53.56611],[10.06396,53.56337],[10.06611,53.55988],[10.06855,53.55954],[10.06912,53.55957],[10.07058,53.5601],[10.071,53.5605],[10.07205,53.56096],[10.07358,53.56132],[10.07324,53.56162],[10.07557,53.56193],[10.07562,53.56181],[10.07837,53.56225],[10.08058,53.56255],[10.08618,53.56305],[10.09261,53.56365],[10.09656,53.5641],[10.10231,53.56493],[10.10568,53.56536],[10.10748,53.56554],[10.11316,53.56603],[10.11764,53.56645],[10.12541,53.56724],[10.12861,53.56737],[10.13181,53.56728],[10.13471,53.56704],[10.13687,53.56678],[10.13964,53.56627],[10.14122,53.56588],[10.14772,53.56438],[10.1475,53.56636],[10.14863,53.56731],[10.14809,53.56757],[10.14871,53.568],[10.14995,53.56857],[10.15048,53.56914],[10.15066,53.56973],[10.15037,53.57029],[10.15104,53.57106],[10.15124,53.57157],[10.15181,53.57217],[10.15207,53.57288],[10.15158,53.57538],[10.15178,53.57625],[10.14961,53.57674],[10.14796,53.57728],[10.14934,53.57816],[10.14883,53.57921],[10.14833,53.57925],[10.14724,53.58117],[10.14554,53.58098],[10.14535,53.58275],[10.14497,53.58277],[10.14494,53.58371],[10.14458,53.58404],[10.14456,53.58462],[10.14431,53.58532],[10.14433,53.5873],[10.1437,53.58788],[10.14299,53.58795],[10.14213,53.58926],[10.14192,53.58925],[10.14164,53.59075],[10.14023,53.59048],[10.13738,53.59279],[10.13714,53.59263],[10.13522,53.59445],[10.13379,53.59523],[10.1328,53.5961],[10.13161,53.598]]]},"properties":{"nr":11,"name":"Wandsbek","lx":10.08989,"ly":53.5805}},
{"type":"Feature","geometry":{"type":"Polygon","coordinates":[[[10.15059,53.63477],[10.14753,53.63425],[10.14266,53.63765],[10.14252,53.63769],[10.1386,53.63784],[10.13796,53.63817],[10.13357,53.6373],[10.13239,53.63748],[10.131,53.63807],[10.12959,53.63901],[10.12618,53.63761],[10.12753,53.63655],[10.12778,53.63615],[10.12844,53.63622],[10.12931,53.63474],[10.12985,53.63369],[10.1289,53.63349],[10.12904,53.63322],[10.12755,53.63315],[10.12567,53.63358],[10.12472,53.63352],[10.12327,53.63306],[10.12275,53.63265],[10.12271,53.63151],[10.12316,53.63016],[10.12253,53.63047],[10.1216,53.6307],[10.12047,53.63117],[10.11747,53.63313],[10.11182,53.63595],[10.10355,53.6342],[10.09891,53.63325],[10.09406,53.63394],[10.09276,53.63379],[10.08407,53.63238],[10.07803,53.63208],[10.0741,53.63129],[10.07707,53.63148],[10.07798,53.63102],[10.078,53.62886],[10.08196,53.62883],[10.08457,53.6275],[10.08457,53.62702],[10.08521,53.62696],[10.08497,53.6259],[10.08434,53.62575],[10.08419,53.62519],[10.08361,53.62522],[10.08343,53.62444],[10.08161,53.62461],[10.08109,53.62477],[10.08062,53.62432],[10.08041,53.62364],[10.08015,53.62359],[10.08003,53.6229],[10.07912,53.62183],[10.07779,53.62208],[10.07732,53.62114],[10.07761,53.62108],[10.07713,53.62016],[10.07651,53.62027],[10.07425,53.61895],[10.07313,53.61931],[10.07242,53.61901],[10.07156,53.61931],[10.07039,53.61938],[10.06921,53.61981],[10.06746,53.61976],[10.06573,53.62029],[10.06371,53.62052],[10.06193,53.6205],[10.06095,53.62034],[10.05946,53.61985],[10.05854,53.61941],[10.05728,53.61849],[10.05612,53.6171],[10.05471,53.61732],[10.04976,53.61901],[10.04885,53.61761],[10.04793,53.61648],[10.04552,53.61329],[10.04406,53.6121],[10.0437,53.61171],[10.04387,53.61138],[10.04425,53.60808],[10.04316,53.60784],[10.04328,53.60723],[10.04725,53.60403],[10.04792,53.60366],[10.05092,53.60254],[10.05134,53.60281],[10.05548,53.60141],[10.05639,53.6014],[10.05601,53.60084],[10.05533,53.60049],[10.0548,53.59956],[10.05573,53.5984],[10.05561,53.5974],[10.05579,53.59688],[10.05558,53.59655],[10.05642,53.59525],[10.05693,53.59511],[10.05717,53.59461],[10.05784,53.59417],[10.05809,53.59375],[10.0592,53.59344],[10.06189,53.59328],[10.06335,53.59305],[10.06777,53.59218],[10.06906,53.592],[10.07001,53.59197],[10.06979,53.59295],[10.07004,53.59397],[10.07168,53.5955],[10.07399,53.59617],[10.07551,53.59679],[10.07693,53.59748],[10.07895,53.59812],[10.08087,53.59839],[10.08203,53.59846],[10.08342,53.59844],[10.08728,53.59755],[10.08963,53.59766],[10.09059,53.59748],[10.09115,53.597],[10.09168,53.59614],[10.09933,53.5978],[10.09998,53.59713],[10.09916,53.59628],[10.09903,53.5941],[10.10525,53.59201],[10.10491,53.59125],[10.10586,53.59065],[10.10853,53.59208],[10.1088,53.5926],[10.10956,53.59217],[10.10938,53.5917],[10.11227,53.59233],[10.11423,53.59225],[10.11511,53.59251],[10.11579,53.59246],[10.11653,53.59267],[10.11686,53.59295],[10.11809,53.59305],[10.11868,53.59341],[10.11904,53.59412],[10.1197,53.59444],[10.12106,53.59452],[10.12169,53.59467],[10.12157,53.59522],[10.12192,53.59558],[10.12421,53.5953],[10.12438,53.59578],[10.12492,53.59571],[10.12475,53.59503],[10.12873,53.59529],[10.1309,53.59571],[10.13084,53.59685],[10.1312,53.59756],[10.13161,53.598],[10.1309,53.59902],[10.12924,53.60022],[10.12805,53.60151],[10.12765,53.60228],[10.12754,53.60283],[10.12685,53.60351],[10.1259,53.60386],[10.12463,53.60408],[10.12345,53.60584],[10.12358,53.6084],[10.12368,53.60871],[10.12446,53.60917],[10.1248,53.61105],[10.12483,53.61207],[10.12413,53.61351],[10.12477,53.61412],[10.12947,53.61813],[10.13407,53.62211],[10.13834,53.62571],[10.14001,53.62705],[10.14192,53.62868],[10.14895,53.63358],[10.15059,53.63477]]]},"properties":{"nr":12,"name":"Bramfeld – Farmsen-Berne – Steilshoop","lx":10.09686,"ly":53.6154}},
{"type":"Feature","geometry":{"type":"MultiPolygon","coordinates":[[[[10.16969,53.66836],[10.17035,53.66871],[10.16975,53.66912],[10.16878,53.6688],[10.16842,53.66844],[10.16894,53.66824],[10.16969,53.66836]]],[[[10.18963,53.63836],[10.19537,53.64238],[10.19561,53.64271],[10.19886,53.64671],[10.19873,53.6472],[10.19838,53.6474],[10.1972,53.64874],[10.19745,53.64904],[10.19664,53.64943],[10.19649,53.6498],[10.19661,53.65049],[10.19617,53.65152],[10.19526,53.65199],[10.19496,53.6526],[10.19617,53.65318],[10.19641,53.65353],[10.19589,53.65478],[10.19167,53.65532],[10.18993,53.65598],[10.18836,53.65606],[10.18733,53.65643],[10.18658,53.65715],[10.18715,53.65813],[10.18778,53.65865],[10.18689,53.65975],[10.18377,53.66343],[10.18282,53.66304],[10.18201,53.66328],[10.18165,53.66313],[10.18067,53.66326],[10.17963,53.66319],[10.17844,53.66284],[10.17691,53.66272],[10.17658,53.66299],[10.17528,53.66355],[10.17449,53.66429],[10.17401,53.66431],[10.17321,53.66495],[10.17289,53.6655],[10.17349,53.66588],[10.17355,53.66625],[10.17414,53.6664],[10.17375,53.66753],[10.17328,53.66797],[10.17297,53.66859],[10.17199,53.66885],[10.1698,53.66799],[10.16856,53.66767],[10.16556,53.66797],[10.16467,53.66846],[10.16373,53.66965],[10.16159,53.67093],[10.16043,53.67104],[10.16005,53.67054],[10.15899,53.67063],[10.15878,53.66965],[10.15575,53.66994],[10.1551,53.6721],[10.15719,53.67174],[10.1578,53.67173],[10.15948,53.67142],[10.16088,53.67105],[10.16114,53.67131],[10.15981,53.67187],[10.15888,53.67214],[10.15634,53.67221],[10.1552,53.67293],[10.15486,53.67295],[10.15415,53.67393],[10.15436,53.67432],[10.15524,53.67443],[10.15453,53.67581],[10.15415,53.67605],[10.15357,53.67559],[10.15412,53.67464],[10.1527,53.67471],[10.14975,53.67544],[10.14642,53.67588],[10.14477,53.67615],[10.14436,53.67674],[10.14374,53.67724],[10.14224,53.67647],[10.14123,53.6783],[10.14113,53.67829],[10.13995,53.68033],[10.14225,53.68029],[10.14338,53.68076],[10.1443,53.68025],[10.14451,53.67991],[10.14502,53.67971],[10.14678,53.6805],[10.15195,53.68254],[10.15261,53.68356],[10.1533,53.68432],[10.15281,53.68625],[10.15257,53.68652],[10.15365,53.68702],[10.15416,53.68698],[10.15484,53.6874],[10.1551,53.68782],[10.15515,53.68836],[10.15596,53.68854],[10.15565,53.6889],[10.15625,53.68939],[10.15706,53.68967],[10.15739,53.68942],[10.15825,53.68943],[10.15876,53.69017],[10.15853,53.69116],[10.1587,53.69127],[10.15892,53.69456],[10.15911,53.69518],[10.15982,53.69662],[10.15965,53.69735],[10.15994,53.70031],[10.16027,53.70082],[10.15985,53.70142],[10.15918,53.70159],[10.15807,53.70215],[10.15733,53.70313],[10.15689,53.70315],[10.15655,53.7037],[10.15685,53.7045],[10.16853,53.70866],[10.1681,53.70872],[10.16742,53.70925],[10.1673,53.71014],[10.16638,53.70983],[10.16624,53.71018],[10.1666,53.71123],[10.16706,53.71111],[10.1684,53.7114],[10.16864,53.71156],[10.17104,53.71168],[10.17203,53.71194],[10.17232,53.71242],[10.17414,53.71249],[10.17483,53.7117],[10.1748,53.71127],[10.17611,53.71064],[10.17678,53.71053],[10.17737,53.71001],[10.17855,53.70973],[10.17942,53.70965],[10.18088,53.70928],[10.18155,53.70893],[10.18562,53.71463],[10.19175,53.72269],[10.19147,53.72351],[10.19173,53.72401],[10.19367,53.73099],[10.19172,53.7313],[10.19035,53.73122],[10.18907,53.73071],[10.18812,53.73115],[10.18658,53.73106],[10.18595,53.73129],[10.18551,53.73233],[10.18434,53.73264],[10.1839,53.73255],[10.18278,53.73274],[10.18099,53.7333],[10.17861,53.73423],[10.17688,53.73637],[10.17244,53.73828],[10.16793,53.73928],[10.16522,53.73929],[10.16477,53.73943],[10.16266,53.73816],[10.16224,53.73753],[10.16248,53.73723],[10.16176,53.73698],[10.1616,53.73332],[10.15048,53.72974],[10.14707,53.72866],[10.14607,53.72825],[10.14278,53.7251],[10.13948,53.72568],[10.13817,53.7248],[10.13451,53.72356],[10.13336,53.72307],[10.13234,53.72229],[10.1288,53.72087],[10.12628,53.71958],[10.12597,53.71916],[10.12478,53.71805],[10.12428,53.71717],[10.12348,53.71712],[10.12334,53.71682],[10.1218,53.71484],[10.12103,53.71331],[10.119,53.7132],[10.11905,53.71341],[10.11769,53.7138],[10.11771,53.71455],[10.11717,53.71524],[10.1164,53.71548],[10.11579,53.7161],[10.11492,53.71591],[10.11447,53.71544],[10.11348,53.71473],[10.11339,53.7144],[10.1108,53.7144],[10.10932,53.71424],[10.10876,53.71434],[10.10203,53.71515],[10.10112,53.71671],[10.09883,53.7166],[10.0976,53.71741],[10.09632,53.71841],[10.09496,53.71907],[10.09412,53.71934],[10.08198,53.72045],[10.07644,53.71376],[10.07689,53.71372],[10.07384,53.71184],[10.07318,53.71202],[10.07051,53.71238],[10.06927,53.71092],[10.07062,53.7101],[10.0712,53.71023],[10.07294,53.70971],[10.07127,53.70834],[10.06937,53.70614],[10.07899,53.7039],[10.07669,53.702],[10.0761,53.70081],[10.07749,53.69945],[10.07555,53.69916],[10.07493,53.6989],[10.07326,53.69869],[10.07236,53.69774],[10.07129,53.69692],[10.07098,53.69577],[10.06976,53.69642],[10.06883,53.69489],[10.06808,53.6949],[10.06758,53.69377],[10.0676,53.69263],[10.06643,53.69077],[10.0658,53.69075],[10.06585,53.68898],[10.06404,53.68865],[10.06071,53.68825],[10.06131,53.68666],[10.06164,53.68608],[10.06372,53.68603],[10.06515,53.68592],[10.06666,53.68592],[10.06718,53.68524],[10.06588,53.68498],[10.06927,53.67952],[10.05787,53.67836],[10.0515,53.6777],[10.04345,53.68199],[10.04308,53.68141],[10.03883,53.67764],[10.03856,53.67766],[10.03594,53.67539],[10.03582,53.67311],[10.03526,53.66565],[10.03494,53.66159],[10.03503,53.66109],[10.03542,53.66095],[10.03507,53.66042],[10.03531,53.65928],[10.03484,53.65904],[10.03466,53.65783],[10.03496,53.65766],[10.03625,53.65763],[10.03657,53.65744],[10.03643,53.655],[10.03659,53.65393],[10.03561,53.65308],[10.03408,53.65237],[10.03399,53.65218],[10.03149,53.65001],[10.02522,53.64468],[10.0247,53.6443],[10.0233,53.6428],[10.0206,53.64005],[10.0202,53.64002],[10.02019,53.63938],[10.02079,53.63944],[10.02375,53.63839],[10.02379,53.63822],[10.02527,53.63781],[10.02632,53.63826],[10.02835,53.63772],[10.02958,53.63779],[10.02996,53.63793],[10.0315,53.63779],[10.03225,53.63755],[10.0322,53.63725],[10.03285,53.63691],[10.03398,53.63671],[10.03333,53.6362],[10.03484,53.63535],[10.03637,53.6346],[10.03565,53.63422],[10.03663,53.63334],[10.03751,53.6327],[10.0385,53.6325],[10.03915,53.63215],[10.04008,53.63192],[10.04135,53.63213],[10.0419,53.63255],[10.04152,53.63346],[10.04169,53.63374],[10.04312,53.63429],[10.04379,53.63485],[10.04562,53.63505],[10.0468,53.6359],[10.04801,53.63626],[10.04868,53.6363],[10.04928,53.63614],[10.04997,53.6357],[10.05049,53.63569],[10.05196,53.63609],[10.05314,53.6366],[10.05516,53.63777],[10.05645,53.63816],[10.05736,53.63672],[10.05727,53.63608],[10.0576,53.63436],[10.05857,53.63138],[10.06008,53.63159],[10.06116,53.62841],[10.06888,53.63014],[10.0741,53.63129],[10.07803,53.63208],[10.08407,53.63238],[10.09276,53.63379],[10.09406,53.63394],[10.09891,53.63325],[10.10355,53.6342],[10.11182,53.63595],[10.11747,53.63313],[10.12047,53.63117],[10.1216,53.6307],[10.12253,53.63047],[10.12316,53.63016],[10.12271,53.63151],[10.12275,53.63265],[10.12327,53.63306],[10.12472,53.63352],[10.12567,53.63358],[10.12755,53.63315],[10.12904,53.63322],[10.1289,53.63349],[10.12985,53.63369],[10.12931,53.63474],[10.12844,53.63622],[10.12778,53.63615],[10.12753,53.63655],[10.12618,53.63761],[10.12959,53.63901],[10.131,53.63807],[10.13239,53.63748],[10.13357,53.6373],[10.13796,53.63817],[10.1386,53.63784],[10.14252,53.63769],[10.14266,53.63765],[10.14753,53.63425],[10.15059,53.63477],[10.16222,53.63685],[10.17173,53.63748],[10.17698,53.6378],[10.17702,53.63696],[10.17814,53.63686],[10.17876,53.63692],[10.17888,53.63797],[10.18022,53.63733],[10.18119,53.63821],[10.18176,53.63801],[10.18963,53.63836]]]]},"properties":{"nr":13,"name":"Alstertal – Walddörfer","lx":10.10534,"ly":53.67467}},
{"type":"Feature","geometry":{"type":"Polygon","coordinates":[[[10.15178,53.57625],[10.15247,53.57792],[10.15365,53.57814],[10.15412,53.57887],[10.15531,53.57922],[10.15894,53.58112],[10.16068,53.58419],[10.16159,53.58525],[10.1618,53.58579],[10.16373,53.58583],[10.16435,53.58507],[10.16319,53.584],[10.16534,53.58231],[10.17313,53.5829],[10.17581,53.58315],[10.17669,53.58318],[10.18733,53.584],[10.1875,53.58399],[10.19584,53.58463],[10.19835,53.58213],[10.20125,53.584],[10.19424,53.59116],[10.19342,53.59274],[10.19217,53.59475],[10.19177,53.59563],[10.19195,53.59606],[10.19292,53.59589],[10.19353,53.5962],[10.19342,53.59668],[10.19458,53.59726],[10.19496,53.59785],[10.1958,53.59785],[10.19595,53.59836],[10.19704,53.59936],[10.19687,53.60032],[10.19648,53.60153],[10.19574,53.60344],[10.1953,53.60422],[10.19518,53.60527],[10.19526,53.60738],[10.1935,53.60989],[10.19181,53.6094],[10.19035,53.61139],[10.18884,53.61304],[10.19241,53.61532],[10.19279,53.61543],[10.19925,53.61841],[10.20175,53.62015],[10.20451,53.62089],[10.20583,53.6215],[10.20586,53.62203],[10.20554,53.62361],[10.20643,53.62368],[10.20761,53.62435],[10.20943,53.62381],[10.21095,53.62299],[10.21116,53.62302],[10.21264,53.62405],[10.21407,53.6248],[10.21619,53.62546],[10.21676,53.62594],[10.21786,53.6264],[10.21813,53.62717],[10.21756,53.62736],[10.21745,53.62772],[10.21655,53.6285],[10.21647,53.62896],[10.21683,53.62997],[10.21616,53.63126],[10.21705,53.63117],[10.22191,53.63365],[10.21306,53.63591],[10.21007,53.63665],[10.20918,53.63666],[10.20787,53.63633],[10.20552,53.63658],[10.2044,53.63657],[10.20241,53.63685],[10.20066,53.63651],[10.1999,53.63675],[10.19961,53.63616],[10.19877,53.63635],[10.19745,53.63646],[10.19544,53.63756],[10.19363,53.63804],[10.19084,53.63819],[10.18963,53.63836],[10.18176,53.63801],[10.18119,53.63821],[10.18022,53.63733],[10.17888,53.63797],[10.17876,53.63692],[10.17814,53.63686],[10.17702,53.63696],[10.17698,53.6378],[10.17173,53.63748],[10.16222,53.63685],[10.15059,53.63477],[10.14895,53.63358],[10.14192,53.62868],[10.14001,53.62705],[10.13834,53.62571],[10.13407,53.62211],[10.12947,53.61813],[10.12477,53.61412],[10.12413,53.61351],[10.12483,53.61207],[10.1248,53.61105],[10.12446,53.60917],[10.12368,53.60871],[10.12358,53.6084],[10.12345,53.60584],[10.12463,53.60408],[10.1259,53.60386],[10.12685,53.60351],[10.12754,53.60283],[10.12765,53.60228],[10.12805,53.60151],[10.12924,53.60022],[10.1309,53.59902],[10.13161,53.598],[10.1328,53.5961],[10.13379,53.59523],[10.13522,53.59445],[10.13714,53.59263],[10.13738,53.59279],[10.14023,53.59048],[10.14164,53.59075],[10.14192,53.58925],[10.14213,53.58926],[10.14299,53.58795],[10.1437,53.58788],[10.14433,53.5873],[10.14431,53.58532],[10.14456,53.58462],[10.14458,53.58404],[10.14494,53.58371],[10.14497,53.58277],[10.14535,53.58275],[10.14554,53.58098],[10.14724,53.58117],[10.14833,53.57925],[10.14883,53.57921],[10.14934,53.57816],[10.14796,53.57728],[10.14961,53.57674],[10.15178,53.57625]]]},"properties":{"nr":14,"name":"Rahlstedt","lx":10.16308,"ly":53.61136}},
{"type":"Feature","geometry":{"type":"Polygon","coordinates":[[[10.16234,53.52298],[10.15894,53.52281],[10.15931,53.522],[10.15626,53.51929],[10.1551,53.51947],[10.15423,53.51906],[10.1522,53.52001],[10.14881,53.52153],[10.14622,53.52254],[10.14558,53.52291],[10.14454,53.52325],[10.1405,53.5248],[10.13747,53.52588],[10.13621,53.52641],[10.13536,53.52606],[10.13438,53.52585],[10.13329,53.525],[10.13215,53.52433],[10.12986,53.524],[10.12873,53.52324],[10.12572,53.52145],[10.12525,53.52111],[10.12264,53.51965],[10.12206,53.51984],[10.12192,53.52023],[10.12259,53.5214],[10.12175,53.52106],[10.12092,53.52115],[10.11873,53.5223],[10.11787,53.52318],[10.11711,53.52325],[10.11512,53.52372],[10.11433,53.5238],[10.11217,53.5245],[10.11161,53.52503],[10.11157,53.52579],[10.11049,53.52579],[10.11066,53.52551],[10.10938,53.52513],[10.10835,53.52437],[10.10475,53.52185],[10.10052,53.5188],[10.10018,53.51897],[10.09887,53.51864],[10.09771,53.51775],[10.09726,53.51729],[10.09622,53.51652],[10.09573,53.51636],[10.09318,53.51453],[10.09349,53.51433],[10.09325,53.51376],[10.09188,53.51301],[10.09135,53.5126],[10.09022,53.51102],[10.08957,53.51094],[10.089,53.51139],[10.08824,53.51173],[10.07265,53.52144],[10.06814,53.52422],[10.06853,53.52437],[10.06876,53.52485],[10.06635,53.52545],[10.06611,53.52545],[10.06443,53.52471],[10.06504,53.52422],[10.06585,53.52157],[10.06567,53.51967],[10.0712,53.51468],[10.07218,53.51367],[10.07277,53.51273],[10.07302,53.51211],[10.07319,53.51116],[10.06998,53.51099],[10.0694,53.5109],[10.06947,53.50928],[10.06964,53.50806],[10.07005,53.50658],[10.07073,53.50501],[10.07041,53.50462],[10.06746,53.50007],[10.06594,53.50059],[10.06383,53.50157],[10.06237,53.50254],[10.06126,53.50354],[10.06041,53.50464],[10.05967,53.50629],[10.05809,53.50665],[10.05737,53.50559],[10.05467,53.50197],[10.05338,53.50013],[10.05217,53.49816],[10.05145,53.49659],[10.05105,53.49471],[10.05105,53.49298],[10.05144,53.49006],[10.05187,53.48745],[10.05217,53.48638],[10.05275,53.48517],[10.05409,53.4835],[10.05556,53.48208],[10.05873,53.4797],[10.05941,53.47908],[10.0601,53.47825],[10.06126,53.4762],[10.06169,53.47517],[10.06216,53.47371],[10.0624,53.47231],[10.06246,53.47088],[10.06276,53.46868],[10.06321,53.46719],[10.06487,53.463],[10.06529,53.46225],[10.06608,53.4612],[10.06683,53.46036],[10.0682,53.45911],[10.07036,53.45756],[10.07138,53.45702],[10.07413,53.45521],[10.07899,53.45387],[10.08147,53.4528],[10.08274,53.45208],[10.08446,53.45093],[10.09238,53.44485],[10.09347,53.44396],[10.09496,53.44263],[10.09688,53.44054],[10.09807,53.43888],[10.10334,53.43134],[10.10366,53.43078],[10.10509,53.4292],[10.10589,53.42852],[10.10735,53.42748],[10.10943,53.4264],[10.11215,53.4254],[10.11709,53.42418],[10.12016,53.42379],[10.12174,53.42367],[10.12426,53.42367],[10.12758,53.42379],[10.12949,53.42378],[10.13092,53.42365],[10.13263,53.42338],[10.13425,53.42298],[10.1358,53.4225],[10.13714,53.42195],[10.13852,53.42119],[10.14022,53.42001],[10.14206,53.41863],[10.145,53.41628],[10.14603,53.4151],[10.1485,53.41167],[10.1514,53.40822],[10.15362,53.40629],[10.15511,53.40518],[10.15779,53.40343],[10.15944,53.40248],[10.16293,53.40061],[10.16513,53.39951],[10.16783,53.39845],[10.16962,53.39789],[10.1732,53.39705],[10.17623,53.39657],[10.17875,53.39637],[10.18025,53.39639],[10.18417,53.39667],[10.18702,53.39709],[10.1936,53.39819],[10.197,53.39852],[10.19993,53.39849],[10.20145,53.39837],[10.20309,53.39816],[10.20845,53.39715],[10.21213,53.39657],[10.21722,53.39589],[10.21999,53.39559],[10.22231,53.39538],[10.22443,53.39526],[10.22922,53.39509],[10.23163,53.39511],[10.23419,53.3954],[10.23631,53.39579],[10.23729,53.39604],[10.23896,53.39663],[10.24149,53.39788],[10.24225,53.39841],[10.24363,53.39957],[10.24522,53.40175],[10.24743,53.40511],[10.25118,53.41068],[10.25359,53.41409],[10.25458,53.41508],[10.25583,53.41609],[10.25755,53.41724],[10.26002,53.41856],[10.26201,53.41932],[10.26493,53.42014],[10.27336,53.42193],[10.28112,53.42364],[10.28368,53.42432],[10.28547,53.42488],[10.28897,53.42615],[10.294,53.42801],[10.2969,53.42926],[10.29927,53.43044],[10.30157,53.43174],[10.3037,53.43259],[10.30473,53.43289],[10.30649,53.43318],[10.30798,53.43329],[10.30783,53.43472],[10.30972,53.43503],[10.31173,53.43526],[10.31388,53.4354],[10.31783,53.43533],[10.31812,53.43647],[10.31913,53.4377],[10.31672,53.43896],[10.31451,53.4397],[10.31498,53.44052],[10.31693,53.44223],[10.32061,53.44556],[10.32523,53.44987],[10.31646,53.45219],[10.31226,53.45224],[10.31003,53.4439],[10.30969,53.44308],[10.30865,53.44254],[10.30569,53.44257],[10.30486,53.44263],[10.30124,53.44249],[10.30073,53.44266],[10.29926,53.44348],[10.29875,53.44419],[10.29782,53.4451],[10.29711,53.44612],[10.29638,53.44664],[10.29578,53.44687],[10.2949,53.44744],[10.29423,53.44816],[10.29899,53.45067],[10.29786,53.45162],[10.29564,53.45204],[10.29375,53.45266],[10.29184,53.45426],[10.29039,53.45509],[10.28701,53.45677],[10.28613,53.45745],[10.28474,53.45801],[10.28392,53.45849],[10.28233,53.45757],[10.28099,53.45881],[10.28063,53.45904],[10.27799,53.4601],[10.2748,53.46167],[10.27464,53.46195],[10.27365,53.46264],[10.27228,53.46307],[10.26937,53.46408],[10.27186,53.46666],[10.26835,53.46816],[10.26491,53.46901],[10.26606,53.47158],[10.26627,53.47311],[10.26525,53.47332],[10.26446,53.47508],[10.26001,53.47441],[10.2587,53.47623],[10.25998,53.47698],[10.25703,53.47782],[10.25645,53.47817],[10.25567,53.47823],[10.25497,53.47803],[10.25449,53.4775],[10.25295,53.47755],[10.25234,53.47725],[10.24873,53.48005],[10.23855,53.48256],[10.23806,53.48436],[10.23785,53.48645],[10.23739,53.48892],[10.23523,53.48909],[10.23457,53.4903],[10.2365,53.49574],[10.23682,53.49632],[10.23353,53.49704],[10.23295,53.49723],[10.22974,53.49647],[10.2291,53.4957],[10.22803,53.49577],[10.22679,53.49609],[10.22518,53.49593],[10.22484,53.49635],[10.22282,53.49655],[10.22314,53.4969],[10.22286,53.49728],[10.22203,53.49765],[10.22228,53.4983],[10.22074,53.49828],[10.22103,53.49904],[10.21984,53.49935],[10.21824,53.4992],[10.21836,53.50039],[10.21887,53.50205],[10.22087,53.5025],[10.22151,53.50276],[10.22238,53.50337],[10.22262,53.5044],[10.2239,53.50516],[10.22396,53.50563],[10.22365,53.50615],[10.2211,53.50653],[10.22033,53.50748],[10.21844,53.50775],[10.21919,53.51056],[10.21731,53.51176],[10.21654,53.51218],[10.21421,53.5129],[10.21396,53.51344],[10.21552,53.51383],[10.21349,53.51396],[10.21315,53.51437],[10.21346,53.51522],[10.21257,53.51673],[10.21191,53.51748],[10.21114,53.51901],[10.2104,53.51992],[10.20662,53.51778],[10.20027,53.51415],[10.18997,53.51338],[10.18952,53.51155],[10.1879,53.51148],[10.18812,53.51221],[10.18266,53.51429],[10.17754,53.51666],[10.17693,53.51699],[10.17297,53.51823],[10.16825,53.51992],[10.16784,53.52019],[10.16707,53.52018],[10.16596,53.52044],[10.16465,53.52125],[10.1624,53.52246],[10.16234,53.52298]]]},"properties":{"nr":15,"name":"Bergedorf","lx":10.18379,"ly":53.45525}},
{"type":"Feature","geometry":{"type":"Polygon","coordinates":[[[10.05161,53.46391],[10.05079,53.46449],[10.04917,53.46581],[10.04832,53.4666],[10.04606,53.46827],[10.04445,53.46922],[10.04272,53.47011],[10.03896,53.47167],[10.03712,53.47238],[10.03525,53.47296],[10.03308,53.47356],[10.03095,53.47403],[10.02874,53.47435],[10.02556,53.47459],[10.02483,53.47458],[10.02082,53.47431],[10.01636,53.47371],[10.01472,53.47358],[10.01276,53.47332],[10.00708,53.47265],[10.00403,53.47244],[10.00114,53.4726],[10.00009,53.47273],[9.99615,53.47347],[9.99004,53.47451],[9.98697,53.47492],[9.98214,53.47571],[9.97795,53.47672],[9.97528,53.47748],[9.97402,53.4779],[9.97017,53.47962],[9.96332,53.48286],[9.96171,53.48376],[9.95993,53.48502],[9.95807,53.48448],[9.95707,53.48409],[9.95634,53.4836],[9.9555,53.48286],[9.95637,53.48228],[9.9563,53.48177],[9.95533,53.48085],[9.94983,53.47583],[9.94956,53.47544],[9.94975,53.47473],[9.94968,53.47263],[9.94983,53.47144],[9.94941,53.47082],[9.94952,53.47001],[9.94988,53.46978],[9.95351,53.46569],[9.95558,53.46468],[9.95642,53.46388],[9.95759,53.46142],[9.95755,53.46099],[9.95699,53.46043],[9.95665,53.4598],[9.95663,53.4583],[9.95637,53.45771],[9.95486,53.45632],[9.95434,53.45511],[9.9547,53.45442],[9.9548,53.45262],[9.9555,53.45163],[9.95703,53.45069],[9.95838,53.44976],[9.95834,53.44881],[9.95661,53.44614],[9.9531,53.44435],[9.95093,53.44321],[9.94595,53.44105],[9.94299,53.43986],[9.9417,53.43957],[9.93863,53.43935],[9.93752,53.43907],[9.93641,53.43847],[9.93566,53.43771],[9.93392,53.43518],[9.93306,53.43343],[9.93253,53.43163],[9.93176,53.42974],[9.92998,53.42148],[9.94213,53.42102],[9.94694,53.4269],[9.94285,53.4283],[9.94387,53.42945],[9.94955,53.42859],[9.95028,53.4283],[9.95584,53.42767],[9.95814,53.42707],[9.96037,53.42657],[9.96003,53.42497],[9.96215,53.42487],[9.96206,53.42415],[9.96381,53.42378],[9.96829,53.42374],[9.96923,53.42204],[9.9713,53.42102],[9.9726,53.42138],[9.97453,53.42062],[9.97487,53.42133],[9.97496,53.42189],[9.97592,53.4219],[9.97576,53.42129],[9.97495,53.42026],[9.97491,53.41972],[9.97573,53.41938],[9.97589,53.4184],[9.97601,53.41573],[9.97638,53.41436],[9.97646,53.41375],[9.98077,53.41422],[9.98114,53.41453],[9.98335,53.41463],[9.98257,53.41572],[9.98353,53.41593],[9.98421,53.41595],[9.98485,53.41647],[9.98522,53.41656],[9.98554,53.41753],[9.98705,53.4174],[9.98702,53.41866],[9.98727,53.41944],[9.98816,53.41933],[9.98843,53.42054],[9.99279,53.41965],[9.99591,53.42587],[10.00074,53.42454],[10.0074,53.42895],[10.00812,53.42904],[10.00957,53.42956],[10.01026,53.42867],[10.01484,53.4293],[10.0152,53.42898],[10.01662,53.42942],[10.01743,53.42877],[10.01885,53.42931],[10.01781,53.43019],[10.01968,53.43024],[10.02127,53.43059],[10.02173,53.43145],[10.02316,53.43246],[10.02923,53.43528],[10.02681,53.43741],[10.02579,53.43824],[10.0238,53.43905],[10.02002,53.44022],[10.01887,53.44064],[10.01613,53.44123],[10.01516,53.44201],[10.01455,53.44206],[10.02225,53.44756],[10.02418,53.44669],[10.02384,53.44587],[10.0251,53.44546],[10.02716,53.44507],[10.02968,53.44452],[10.03233,53.4441],[10.0342,53.44597],[10.03514,53.44685],[10.03642,53.44692],[10.03713,53.44654],[10.03656,53.44602],[10.0426,53.44605],[10.04312,53.44663],[10.04407,53.44642],[10.04438,53.44672],[10.04533,53.44635],[10.04915,53.44985],[10.0412,53.45157],[10.0441,53.45491],[10.04408,53.45499],[10.04215,53.45588],[10.04198,53.45659],[10.04289,53.45783],[10.04311,53.45842],[10.04362,53.45898],[10.04433,53.45938],[10.04531,53.45929],[10.04596,53.45972],[10.04591,53.46064],[10.04672,53.46119],[10.04777,53.46125],[10.04815,53.46112],[10.04874,53.46198],[10.04959,53.46275],[10.04961,53.46309],[10.05161,53.46391]]]},"properties":{"nr":16,"name":"Harburg","lx":9.98523,"ly":53.44867}},
{"type":"Feature","geometry":{"type":"Polygon","coordinates":[[[9.95993,53.48502],[9.95777,53.48692],[9.95587,53.48903],[9.95477,53.49042],[9.95322,53.49256],[9.95183,53.49481],[9.95066,53.49631],[9.95008,53.49688],[9.94901,53.49769],[9.94616,53.4993],[9.94497,53.50009],[9.94366,53.50118],[9.94261,53.50218],[9.9417,53.50336],[9.9412,53.50428],[9.94065,53.50597],[9.94015,53.50882],[9.93992,53.51135],[9.93951,53.51405],[9.93883,53.51995],[9.93882,53.52171],[9.93442,53.52223],[9.93401,53.52189],[9.93275,53.52162],[9.93147,53.521],[9.92904,53.51889],[9.92766,53.51815],[9.92738,53.51764],[9.92636,53.51635],[9.92565,53.51581],[9.92379,53.51585],[9.92191,53.51532],[9.92018,53.51502],[9.91855,53.51449],[9.91777,53.51462],[9.91668,53.515],[9.91507,53.51471],[9.91452,53.51424],[9.91345,53.51427],[9.91264,53.51402],[9.91179,53.51352],[9.91146,53.51367],[9.91041,53.51362],[9.90908,53.51331],[9.90689,53.51327],[9.9034,53.51355],[9.90174,53.51387],[9.89571,53.51547],[9.89426,53.51595],[9.8916,53.51709],[9.89057,53.51743],[9.88908,53.51774],[9.88792,53.51783],[9.88622,53.51785],[9.88534,53.51812],[9.88453,53.51908],[9.88389,53.51911],[9.88095,53.519],[9.87814,53.51903],[9.87787,53.51864],[9.87492,53.51913],[9.87343,53.51942],[9.87107,53.51965],[9.86808,53.5197],[9.86566,53.51945],[9.86276,53.51885],[9.86009,53.51796],[9.85825,53.51721],[9.85443,53.51678],[9.8463,53.51652],[9.84515,53.51589],[9.84217,53.51566],[9.83767,53.5165],[9.83456,53.51729],[9.83198,53.5187],[9.83079,53.51958],[9.82939,53.5208],[9.82799,53.52301],[9.82723,53.52456],[9.82669,53.52592],[9.82639,53.5271],[9.82647,53.52945],[9.825,53.52903],[9.82356,53.52872],[9.82247,53.52822],[9.82168,53.52801],[9.82019,53.52802],[9.81795,53.52844],[9.81758,53.52915],[9.81645,53.52933],[9.81468,53.52974],[9.81365,53.5299],[9.81222,53.53033],[9.81134,53.53051],[9.80965,53.53072],[9.80899,53.53071],[9.80735,53.53101],[9.80667,53.53081],[9.80602,53.53115],[9.80479,53.53143],[9.80187,53.53231],[9.7996,53.53319],[9.79889,53.53336],[9.79802,53.53377],[9.7959,53.5342],[9.79272,53.536],[9.79195,53.5362],[9.79005,53.53645],[9.78825,53.53689],[9.78686,53.53746],[9.78566,53.53765],[9.78437,53.53823],[9.78211,53.53898],[9.78031,53.53981],[9.77821,53.54093],[9.77632,53.54159],[9.7744,53.54269],[9.77378,53.54284],[9.77231,53.54352],[9.77081,53.54266],[9.76993,53.54234],[9.76711,53.54208],[9.76702,53.54092],[9.76556,53.54108],[9.76939,53.53369],[9.76998,53.53359],[9.77106,53.53129],[9.77126,53.53107],[9.77055,53.5305],[9.77047,53.53003],[9.76987,53.52953],[9.77092,53.5288],[9.77204,53.52825],[9.77353,53.52796],[9.7742,53.52732],[9.77415,53.52693],[9.77441,53.52642],[9.77488,53.52605],[9.7742,53.52525],[9.77445,53.52472],[9.778,53.52504],[9.77859,53.52328],[9.77889,53.52271],[9.77976,53.52065],[9.77996,53.51999],[9.78131,53.51867],[9.78108,53.51837],[9.77558,53.52045],[9.77413,53.52096],[9.77107,53.52187],[9.76983,53.52042],[9.76899,53.51993],[9.76836,53.51835],[9.76714,53.5164],[9.76627,53.51478],[9.76648,53.51408],[9.7647,53.51059],[9.76355,53.50823],[9.76441,53.50762],[9.76574,53.50716],[9.76709,53.50659],[9.76816,53.50587],[9.76882,53.50525],[9.76974,53.50512],[9.77121,53.50468],[9.77226,53.50422],[9.77396,53.50368],[9.77602,53.50317],[9.77742,53.50255],[9.77791,53.50222],[9.77933,53.50172],[9.78147,53.50153],[9.78112,53.50075],[9.7811,53.49977],[9.7816,53.50004],[9.78245,53.50014],[9.78301,53.50004],[9.7846,53.49999],[9.7836,53.49752],[9.78291,53.49456],[9.78309,53.49456],[9.782,53.49233],[9.78701,53.49331],[9.78842,53.49351],[9.79034,53.49396],[9.79093,53.49419],[9.7929,53.49453],[9.79452,53.49418],[9.79898,53.4935],[9.80046,53.49354],[9.80209,53.49388],[9.80266,53.4937],[9.80235,53.49132],[9.80249,53.49001],[9.80151,53.48901],[9.80081,53.48812],[9.80081,53.48612],[9.80007,53.4844],[9.80004,53.48318],[9.80029,53.48245],[9.80013,53.48138],[9.80029,53.48026],[9.79995,53.47966],[9.79999,53.47878],[9.79941,53.47678],[9.79878,53.47596],[9.79848,53.47513],[9.79914,53.47512],[9.8005,53.47543],[9.79981,53.46941],[9.8032,53.46933],[9.80349,53.46685],[9.8048,53.467],[9.80612,53.46742],[9.80673,53.46649],[9.80718,53.4654],[9.80731,53.46357],[9.80722,53.46295],[9.80749,53.46276],[9.81199,53.46251],[9.8131,53.46249],[9.83654,53.45094],[9.84432,53.44466],[9.85075,53.43952],[9.85654,53.43492],[9.85802,53.43444],[9.85888,53.43407],[9.85936,53.43357],[9.85944,53.43312],[9.86002,53.43217],[9.8611,53.43138],[9.8611,53.43081],[9.86159,53.43039],[9.86171,53.42975],[9.86323,53.43014],[9.86403,53.43017],[9.86467,53.43058],[9.86438,53.43112],[9.8647,53.43199],[9.8641,53.43237],[9.86405,53.43303],[9.86348,53.43351],[9.86251,53.43382],[9.8622,53.43484],[9.8616,53.43541],[9.86082,53.43577],[9.86004,53.4363],[9.86065,53.43719],[9.86071,53.43843],[9.86223,53.44],[9.86345,53.44043],[9.86419,53.44035],[9.86544,53.43992],[9.86647,53.43987],[9.86693,53.4401],[9.86746,53.44089],[9.86716,53.4422],[9.86718,53.4434],[9.86888,53.44453],[9.86958,53.4441],[9.86981,53.44338],[9.87036,53.44296],[9.87134,53.44256],[9.87258,53.44242],[9.8733,53.44217],[9.88596,53.45013],[9.88622,53.44975],[9.88874,53.45056],[9.88958,53.45201],[9.89176,53.45317],[9.89198,53.4539],[9.89422,53.45581],[9.89499,53.45585],[9.89514,53.45502],[9.89583,53.4543],[9.8969,53.45385],[9.89758,53.45374],[9.89764,53.45422],[9.89842,53.45436],[9.90022,53.45405],[9.89796,53.45506],[9.89861,53.45644],[9.89845,53.45746],[9.89896,53.45767],[9.89943,53.45743],[9.90069,53.45721],[9.90091,53.45679],[9.90058,53.45652],[9.90112,53.45618],[9.90169,53.45622],[9.90252,53.45598],[9.90311,53.45603],[9.90432,53.4567],[9.90429,53.45628],[9.90468,53.45553],[9.9062,53.45414],[9.90755,53.45386],[9.90823,53.45356],[9.90846,53.45303],[9.9097,53.45235],[9.90995,53.45172],[9.91121,53.44995],[9.91162,53.44926],[9.91344,53.44884],[9.91501,53.44808],[9.91719,53.44655],[9.91731,53.44586],[9.91821,53.44478],[9.91679,53.44276],[9.9169,53.44232],[9.91896,53.44274],[9.91971,53.43946],[9.92291,53.43637],[9.92143,53.43614],[9.92036,53.4352],[9.9205,53.4347],[9.91974,53.43394],[9.91924,53.43369],[9.91408,53.43002],[9.91623,53.42671],[9.91542,53.4259],[9.91625,53.4248],[9.91443,53.424],[9.91291,53.42313],[9.91277,53.42245],[9.91073,53.42138],[9.90877,53.41953],[9.90749,53.41758],[9.90669,53.41596],[9.91143,53.41507],[9.91074,53.41405],[9.91094,53.41401],[9.91158,53.41503],[9.91643,53.41412],[9.91657,53.41438],[9.91784,53.41519],[9.92469,53.41943],[9.9252,53.41932],[9.92726,53.42053],[9.9295,53.42006],[9.92998,53.42148],[9.93176,53.42974],[9.93253,53.43163],[9.93306,53.43343],[9.93392,53.43518],[9.93566,53.43771],[9.93641,53.43847],[9.93752,53.43907],[9.93863,53.43935],[9.9417,53.43957],[9.94299,53.43986],[9.94595,53.44105],[9.95093,53.44321],[9.9531,53.44435],[9.95661,53.44614],[9.95834,53.44881],[9.95838,53.44976],[9.95703,53.45069],[9.9555,53.45163],[9.9548,53.45262],[9.9547,53.45442],[9.95434,53.45511],[9.95486,53.45632],[9.95637,53.45771],[9.95663,53.4583],[9.95665,53.4598],[9.95699,53.46043],[9.95755,53.46099],[9.95759,53.46142],[9.95642,53.46388],[9.95558,53.46468],[9.95351,53.46569],[9.94988,53.46978],[9.94952,53.47001],[9.94941,53.47082],[9.94983,53.47144],[9.94968,53.47263],[9.94975,53.47473],[9.94956,53.47544],[9.94983,53.47583],[9.95533,53.48085],[9.9563,53.48177],[9.95637,53.48228],[9.9555,53.48286],[9.95634,53.4836],[9.95707,53.48409],[9.95807,53.48448],[9.95993,53.48502]]]},"properties":{"nr":17,"name":"Süderelbe","lx":9.86749,"ly":53.48152}}
]}